[{"OBJECT_NAME":"SHIYAN-13 (SY-13)","OBJECT_ID":"2022-004A","EPOCH":"2026-03-09T23:59:10.497984","MEAN_MOTION":14.19820132,"ECCENTRICITY":0.06076023,"INCLINATION":98.4671,"RA_OF_ASC_NODE":92.2685,"ARG_OF_PERICENTER":122.0091,"MEAN_ANOMALY":244.1614,"EPHEMERIS_TYPE":0,"CLASSIFICATION_TYPE":"U","NORAD_CAT_ID":51102,"ELEMENT_SET_NO":999,"REV_AT_EPOCH":21321,"BSTAR":0.0002501462,"MEAN_MOTION_DOT":3.736e-5,"MEAN_MOTION_DDOT":0},{"OBJECT_NAME":"FENGYUN 1C DEB","OBJECT_ID":"1999-025DFY","EPOCH":"2026-03-03T06:55:21.899424","MEAN_MOTION":15.25006274,"ECCENTRICITY":0.01038057,"INCLINATION":98.9901,"RA_OF_ASC_NODE":88.6648,"ARG_OF_PERICENTER":65.5781,"MEAN_ANOMALY":295.624,"EPHEMERIS_TYPE":0,"CLASSIFICATION_TYPE":"U","NORAD_CAT_ID":33687,"ELEMENT_SET_NO":999,"REV_AT_EPOCH":72733,"BSTAR":0.001670914,"MEAN_MOTION_DOT":0.00048845,"MEAN_MOTION_DDOT":0}]
